[{"OBJECT_NAME":"GHGSAT-C2","OBJECT_ID":"2021-006DA","EPOCH":"2026-03-09T16:22:36.229728","MEAN_MOTION":15.36517997,"ECCENTRICITY":0.00061235,"INCLINATION":97.2293,"RA_OF_ASC_NODE":117.6581,"ARG_OF_PERICENTER":150.646,"MEAN_ANOMALY":209.513,"EPHEMERIS_TYPE":0,"CLASSIFICATION_TYPE":"U","NORAD_CAT_ID":47509,"ELEMENT_SET_NO":999,"REV_AT_EPOCH":28456,"BSTAR":0.00026516759,"MEAN_MOTION_DOT":9.377e-5,"MEAN_MOTION_DDOT":0},{"OBJECT_NAME":"HJS-6C","OBJECT_ID":"2025-067C","EPOCH":"2026-03-09T22:46:43.472064","MEAN_MOTION":15.37673288,"ECCENTRICITY":0.00109563,"INCLINATION":54.9913,"RA_OF_ASC_NODE":108.3875,"ARG_OF_PERICENTER":78.2576,"MEAN_ANOMALY":281.968,"EPHEMERIS_TYPE":0,"CLASSIFICATION_TYPE":"U","NORAD_CAT_ID":63430,"ELEMENT_SET_NO":999,"REV_AT_EPOCH":5274,"BSTAR":0.000242496,"MEAN_MOTION_DOT":8.728e-5,"MEAN_MOTION_DDOT":0}]
